{
    "links": {
        "self": "http://www.neowsapp.com/rest/v1/neo/3660058?api_key=iIulBulltgU6a56xZRHN4H3l9WmuAYTsLGpBGhQ2"
    },
    "id": "3660058",
    "neo_reference_id": "3660058",
    "name": "(2014 BQ43)",
    "designation": "2014 BQ43",
    "nasa_jpl_url": "http://ssd.jpl.nasa.gov/sbdb.cgi?sstr=3660058",
    "absolute_magnitude_h": 23.1,
    "estimated_diameter": {
        "kilometers": {
            "estimated_diameter_min": 0.063760979,
            "estimated_diameter_max": 0.1425738833
        },
        "meters": {
            "estimated_diameter_min": 63.7609789875,
            "estimated_diameter_max": 142.5738833281
        },
        "miles": {
            "estimated_diameter_min": 0.0396192233,
            "estimated_diameter_max": 0.0885912765
        },
        "feet": {
            "estimated_diameter_min": 209.1895703015,
            "estimated_diameter_max": 467.7620993781
        }
    },
    "is_potentially_hazardous_asteroid": false,
    "close_approach_data": [
        {
            "close_approach_date": "2014-02-15",
            "close_approach_date_full": "2014-Feb-15 00:36",
            "epoch_date_close_approach": 1392424560000,
            "relative_velocity": {
                "kilometers_per_second": "15.4115117735",
                "kilometers_per_hour": "55481.4423847249",
                "miles_per_hour": "34474.0106862198"
            },
            "miss_distance": {
                "astronomical": "0.0548916891",
                "lunar": "21.3528670599",
                "kilometers": "8211679.770062217",
                "miles": "5102501.2029919146"
            },
            "orbiting_body": "Earth"
        }
    ],
    "orbital_data": {
        "orbit_id": "13",
        "orbit_determination_date": "2017-04-06 08:42:41",
        "first_observation_date": "2014-01-26",
        "last_observation_date": "2014-02-07",
        "data_arc_in_days": 12,
        "observations_used": 61,
        "orbit_uncertainty": "8",
        "minimum_orbit_intersection": ".0178293",
        "jupiter_tisserand_invariant": "3.801",
        "epoch_osculation": "2456688.5",
        "eccentricity": ".5710003052090787",
        "semi_major_axis": "1.839999069852471",
        "inclination": "4.77792588966707",
        "ascending_node_longitude": "292.4264357204765",
        "orbital_period": "911.6430639325637",
        "perihelion_distance": ".7893590393822889",
        "perihelion_argument": "280.097595933032",
        "aphelion_distance": "2.890639100322652",
        "perihelion_time": "2456747.069017435072",
        "mean_anomaly": "336.871599082132",
        "mean_motion": ".3948913936196305",
        "equinox": "J2000",
        "orbit_class": {
            "orbit_class_type": "APO",
            "orbit_class_description": "Near-Earth asteroid orbits which cross the Earth’s orbit similar to that of 1862 Apollo",
            "orbit_class_range": "a (semi-major axis) > 1.0 AU; q (perihelion) < 1.017 AU"
        }
    },
    "is_sentry_object": false
}